{
  "norad_id": 61694,
  "name": "STARLINK-11348 [DTC]",
  "history": [
    {
      "epoch": "2026-03-28T20:24:36.704448Z",
      "apogee_km": 360.2068419928637,
      "perigee_km": 359.297092224524,
      "latitude_deg": -5.310808386693739e-07,
      "longitude_deg": 159.33541154564222,
      "height_km": 360.7005380369089,
      "semi_major_axis_km": 6737.888967108694,
      "eccentricity": 6.751e-05,
      "inclination_deg": 53.1593,
      "raan_deg": 291.7533,
      "arg_perigee_deg": 94.3411,
      "mean_anomaly_deg": 265.7684,
      "mean_motion_rev_day": 15.69701188
    }
  ]
}